BEIDOU-2 G3             
1 36590U 10024A   26186.65371676 -.00000123  00000+0  00000+0 0  9999
2 36590   4.5569  61.4333 0007757 358.6820 178.5221  1.00270368 58952
BADR-5                  
1 36592U 10025A   26186.58275184  .00000167  00000+0  00000+0 0  9998
2 36592   0.0572 113.0171 0004653  77.7955 333.0079  1.00271206 53409
COMS 1                  
1 36744U 10032A   26185.86445056 -.00000135  00000+0  00000+0 0  9998
2 36744   4.8475  75.1472 0011639  14.1480 147.8491  0.99169370 51260
ARABSAT-5A              
1 36745U 10032B   26186.58275184  .00000167  00000+0  00000+0 0  9996
2 36745   0.0897  60.9560 0005542  54.4311  48.4690  1.00269487 58833
ECHOSTAR 15             
1 36792U 10034A   26186.56408955  .00000013  00000+0  00000+0 0  9992
2 36792   0.0282 292.4326 0002381 145.8407 289.5545  1.00270410 58503
BEIDOU-2 IGSO-1         
1 36828U 10036A   26185.97829638 -.00000073  00000+0  00000+0 0  9990
2 36828  54.3059 162.7991 0059183 225.2498 354.5072  1.00267280 58272
NILESAT 201             
1 36830U 10037A   26186.57521181 -.00000044  00000+0  00000+0 0  9991
2 36830   0.0186 253.0957 0005460 237.9465 352.6115  1.00271924 58562
RASCOM-QAF 1R           
1 36831U 10037B   26186.57729182  .00000032  00000+0  00000+0 0  9999
2 36831   0.0122  54.6933 0006588  41.1300  38.4508  1.00271225 58498
AEHF-1 (USA 214)        
1 36868U 10039A   26186.29746972  .00000157  00000+0  00000+0 0  9994
2 36868   8.2624  67.8083 0003979  32.9053 319.6070  1.00270324 53831
XM-5                    
1 37185U 10053A   26183.85406361 -.00000012  00000+0  00000+0 0  9998
2 37185   0.0667 268.1133 0002415 288.6084 276.4302  1.00271810 57643
BSAT-3B                 
1 37207U 10056B   26186.59470844 -.00000336  00000+0  00000+0 0  9996
2 37207   0.0542 227.7270 0002306 312.1401  67.6589  1.00271725 52285
BEIDOU-2 G4             
1 37210U 10057A   26186.60835270 -.00000101  00000+0  00000+0 0  9991
2 37210   3.6897  68.8367 0004982 187.1173  46.6256  1.00271144 57479
SKYTERRA 1              
1 37218U 10061A   26186.55778848 -.00000107  00000+0  00000+0 0  9991
2 37218   5.1614  50.8196 0002478  31.2960 300.9154  1.00271376 57372
HYLAS 1                 
1 37237U 10065A   26181.30407082  .00000096  00000+0  00000+0 0  9999
2 37237   5.6751  72.8623 0001043 340.0885 348.6881  1.00272596  7010
INTELSAT 17 (IS-17)     
1 37238U 10065B   26186.51844773  .00000012  00000+0  00000+0 0  9998
2 37238   0.0049  52.7565 0002565  55.7999  67.5807  1.00272227 53431
BEIDOU-2 IGSO-2         
1 37256U 10068A   26185.78653084 -.00000194  00000+0  00000+0 0  9994
2 37256  47.5153 271.6140 0056612 213.9633 188.6395  1.00277550 56972
EUTELSAT KA-SAT 9A      
1 37258U 10069A   26183.58434090  .00000072  00000+0  00000+0 0  9991
2 37258   0.0605  12.7072 0003862 123.3444   3.9181  1.00271458 44162
HISPASAT 30W-5          
1 37264U 10070A   26186.42812367 -.00000203  00000+0  00000+0 0  9990
2 37264   0.0439 105.6312 0005770  11.5744 290.3413  1.00270501 53364
KOREASAT 6              
1 37265U 10070B   26185.46778125 -.00000099  00000+0  00000+0 0  9990
2 37265   0.0199  71.9173 0002613  44.3221 134.5274  1.00271886 56943
INTELSAT 28 (IS-28)     
1 37392U 11016A   26186.42786367 -.00000212  00000+0  00000+0 0  9993
2 37392   1.8503  82.4089 0003824  25.8482 297.4546  1.00271051 53462
YAHSAT 1A               
1 37393U 11016B   26183.76845293  .00000000  00000+0  00000+0 0  9996
2 37393   0.0185  40.6280 0003400  71.1376 138.1848  1.00269059 42565
SBIRS GEO-1 (USA 230)   
1 37481U 11019A   26185.58893537  .00000110  00000+0  00000+0 0  9995
2 37481   4.5740  53.1133 0001918  44.3946  88.9026  1.00272823 55570
TELSTAR 14R             
1 37602U 11021A   26186.56420508 -.00000266  00000+0  00000+0 0  9999
2 37602   0.0613  83.8510 0002061 355.7474 344.0841  1.00271288 56014
GSAT-8                  
1 37605U 11022A   26185.51831509  .00000096  00000+0  00000+0 0  9994
2 37605   2.1730  81.6229 0002128 166.7757 275.8147  1.00271356 53395
ST-2                    
1 37606U 11022B   26186.45155073 -.00000198  00000+0  00000+0 0  9998
2 37606   0.0174  76.8956 0001668  44.5142  52.6188  1.00270882 55466
ZHONGXING-10            
1 37677U 11026A   26186.64865895 -.00000175  00000+0  00000+0 0  9996
2 37677   1.0920  84.0034 0003746  14.5660 144.1215  1.00271124 55180
SES-3                   
1 37748U 11035A   26186.55862964 -.00000089  00000+0  00000+0 0  9993
2 37748   1.3712  82.9002 0002220  16.1264 282.6432  1.00271837 54771
KAZSAT-2                
1 37749U 11035B   26183.87531448 -.00000187  00000+0  00000+0 0  9995
2 37749   0.0160 119.0733 0001822  37.1147 166.3416  1.00272906 53551
BEIDOU-2 IGSO-4         
1 37763U 11038A   26185.97739419  .00000036  00000+0  00000+0 0  9997
2 37763  54.6038 165.5148 0159950 231.4052 331.9664  1.00281969 54827
ASTRA 1N                
1 37775U 11041A   26186.58049850  .00000134  00000+0  00000+0 0  9994
2 37775   0.0663  23.2890 0005878  84.7119  43.7582  1.00274028 44717
BSAT-3C (JCSAT-110R)    
1 37776U 11041B   26186.62172299 -.00000337  00000+0  00000+0 0  9990
2 37776   0.0218 326.5468 0000113  70.5744 220.2809  1.00271988 50654
