OBJECT_NAME,OBJECT_ID,EPOCH,MEAN_MOTION,ECCENTRICITY,INCLINATION,RA_OF_ASC_NODE,ARG_OF_PERICENTER,MEAN_ANOMALY,EPHEMERIS_TYPE,CLASSIFICATION_TYPE,NORAD_CAT_ID,ELEMENT_SET_NO,REV_AT_EPOCH,BSTAR,MEAN_MOTION_DOT,MEAN_MOTION_DDOT
BEIDOU-2 G3,2010-024A,2026-07-05T15:41:21.128064,1.00270368,.00077574,4.5569,61.4333,358.6820,178.5221,0,U,36590,999,5895,0,-.123E-5,0
BADR-5,2010-025A,2026-07-05T13:59:09.758976,1.00271206,.00046536,0.0572,113.0171,77.7955,333.0079,0,U,36592,999,5340,0,.167E-5,0
COMS 1,2010-032A,2026-07-04T20:44:48.528384,0.99169370,.001164,4.8475,75.1472,14.1480,147.8491,0,U,36744,999,5126,0,-.135E-5,0
ARABSAT-5A,2010-032B,2026-07-05T13:59:09.758976,1.00269487,.00055421,0.0897,60.9560,54.4311,48.4690,0,U,36745,999,5883,0,.167E-5,0
ECHOSTAR 15,2010-034A,2026-07-05T13:32:17.337120,1.00270410,.00023811,0.0282,292.4326,145.8407,289.5545,0,U,36792,999,5850,0,.13E-6,0
BEIDOU-2 IGSO-1,2010-036A,2026-07-04T23:28:44.807232,1.00267280,.0059184,54.3059,162.7991,225.2498,354.5072,0,U,36828,999,5827,0,-.73E-6,0
NILESAT 201,2010-037A,2026-07-05T13:48:18.300384,1.00271924,.00054604,0.0186,253.0957,237.9465,352.6115,0,U,36830,999,5856,0,-.44E-6,0
RASCOM-QAF 1R,2010-037B,2026-07-05T13:51:18.013248,1.00271225,.00065887,0.0122,54.6933,41.1300,38.4508,0,U,36831,999,5849,0,.32E-6,0
AEHF-1 (USA 214),2010-039A,2026-07-05T07:08:21.382944,1.00270324,.000398,8.2624,67.8083,32.9053,319.6070,0,U,36868,999,5383,0,.157E-5,0
XM-5,2010-053A,2026-07-02T20:29:51.095904,1.00271810,.00024153,0.0667,268.1133,288.6084,276.4302,0,U,37185,999,5764,0,-.12E-6,0
BSAT-3B,2010-056B,2026-07-05T14:16:22.809216,1.00271725,.00023062,0.0542,227.7270,312.1401,67.6589,0,U,37207,999,5228,0,-.336E-5,0
BEIDOU-2 G4,2010-057A,2026-07-05T14:36:01.673280,1.00271144,.0004982,3.6897,68.8367,187.1173,46.6256,0,U,37210,999,5747,0,-.101E-5,0
SKYTERRA 1,2010-061A,2026-07-05T13:23:12.924672,1.00271376,.00024786,5.1614,50.8196,31.2960,300.9154,0,U,37218,999,5737,0,-.107E-5,0
HYLAS 1,2010-065A,2026-06-30T07:17:51.718848,1.00272596,.00010436,5.6751,72.8623,340.0885,348.6881,0,U,37237,999,701,0,.96E-6,0
INTELSAT 17 (IS-17),2010-065B,2026-07-05T12:26:33.883008,1.00272227,.0002566,0.0049,52.7565,55.7999,67.5807,0,U,37238,999,5343,0,.12E-6,0
BEIDOU-2 IGSO-2,2010-068A,2026-07-04T18:52:36.264576,1.00277550,.00566128,47.5153,271.6140,213.9633,188.6395,0,U,37256,999,5697,0,-.194E-5,0
EUTELSAT KA-SAT 9A,2010-069A,2026-07-02T14:01:27.053760,1.00271458,.0003862,0.0605,12.7072,123.3444,3.9181,0,U,37258,999,4416,0,.72E-6,0
HISPASAT 30W-5,2010-070A,2026-07-05T10:16:29.885088,1.00270501,.0005771,0.0439,105.6312,11.5744,290.3413,0,U,37264,999,5336,0,-.203E-5,0
KOREASAT 6,2010-070B,2026-07-04T11:13:36.300000,1.00271886,.0002613,0.0199,71.9173,44.3221,134.5274,0,U,37265,999,5694,0,-.99E-6,0
INTELSAT 28 (IS-28),2011-016A,2026-07-05T10:16:07.421088,1.00271051,.0003825,1.8503,82.4089,25.8482,297.4546,0,U,37392,999,5346,0,-.212E-5,0
YAHSAT 1A,2011-016B,2026-07-02T18:26:34.333152,1.00269059,.00034,0.0185,40.6280,71.1376,138.1848,0,U,37393,999,4256,0,0,0
SBIRS GEO-1 (USA 230),2011-019A,2026-07-04T14:08:04.015968,1.00272823,.00019181,4.5740,53.1133,44.3946,88.9026,0,U,37481,999,5557,0,.11E-5,0
TELSTAR 14R,2011-021A,2026-07-05T13:32:27.318912,1.00271288,.00020612,0.0613,83.8510,355.7474,344.0841,0,U,37602,999,5601,0,-.266E-5,0
GSAT-8,2011-022A,2026-07-04T12:26:22.423776,1.00271356,.00021287,2.1730,81.6229,166.7757,275.8147,0,U,37605,999,5339,0,.96E-6,0
ST-2,2011-022B,2026-07-05T10:50:13.983072,1.00270882,.0001668,0.0174,76.8956,44.5142,52.6188,0,U,37606,999,5546,0,-.198E-5,0
ZHONGXING-10,2011-026A,2026-07-05T15:34:04.133280,1.00271124,.00037464,1.0920,84.0034,14.5660,144.1215,0,U,37677,999,5518,0,-.175E-5,0
SES-3,2011-035A,2026-07-05T13:24:25.600032,1.00271837,.000222,1.3712,82.9002,16.1264,282.6432,0,U,37748,999,5477,0,-.89E-6,0
KAZSAT-2,2011-035B,2026-07-02T21:00:27.171072,1.00272906,.00018229,0.0160,119.0733,37.1147,166.3416,0,U,37749,999,5355,0,-.187E-5,0
BEIDOU-2 IGSO-4,2011-038A,2026-07-04T23:27:26.858016,1.00281969,.015995,54.6038,165.5148,231.4052,331.9664,0,U,37763,999,5482,0,.36E-6,0
ASTRA 1N,2011-041A,2026-07-05T13:55:55.070400,1.00274028,.00058784,0.0663,23.2890,84.7119,43.7582,0,U,37775,999,4471,0,.134E-5,0
BSAT-3C (JCSAT-110R),2011-041B,2026-07-05T14:55:16.866336,1.00271988,.00001132,0.0218,326.5468,70.5744,220.2809,0,U,37776,999,5065,0,-.337E-5,0
